[ {"name": "STARLINK-3739", "line1": "1 52266U 22041F   26196.19053034  .00005684  00000+0  36175-3 0  9996", "line2": "2 52266  53.2134 256.5014 0001956  27.9171 332.1927 15.10163668233611"}, {"name": "STARLINK-3748", "line1": "1 52267U 22041G   26196.16670139  .00092941  00000+0  30875-2 0  9997", "line2": "2 52267  53.1591 255.1707 0002199  78.3573  64.7640 15.30445629  5684"}, {"name": "STARLINK-3746", "line1": "1 52268U 22041H   26196.16670139  .00034100  00000+0  98451-3 0  9996", "line2": "2 52268  53.1590 254.3253 0001257  90.4463 184.9150 15.35384811  5836"}, {"name": "STARLINK-3791", "line1": "1 52269U 22041J   26195.47702468 -.00000005  00000+0  17746-4 0  9998", "line2": "2 52269  53.1578 259.6890 0000991  85.4959 274.6146 15.08830294233506"}, {"name": "STARLINK-3804", "line1": "1 52270U 22041K   26196.19830942 -.00000459  00000+0 -10777-4 0  9990", "line2": "2 52270  53.1574 256.4752 0000811  81.0661 279.0422 15.08829342233619"}, {"name": "STARLINK-3788", "line1": "1 52271U 22041L   26196.13574851 -.00000973  00000+0 -43091-4 0  9995", "line2": "2 52271  53.1577 256.7275 0001070  82.6358 277.4755 15.08829212233600"}, {"name": "STARLINK-3781", "line1": "1 52272U 22041M   26196.18210179  .00076036  00000+0  25695-2 0  9990", "line2": "2 52272  53.1608 254.3220 0005191 103.2020 256.9560 15.29984774233642"}, {"name": "STARLINK-3782", "line1": "1 52273U 22041N   26196.16670139  .00013900  00000+0  45900-3 0  9998", "line2": "2 52273  53.1601 245.2704 0000937  66.2769  90.0634 15.31690123  5734"}, {"name": "STARLINK-3790", "line1": "1 52274U 22041P   26196.19924888 -.00002507  00000+0 -74555-4 0  9997", "line2": "2 52274  53.1596 254.4746 0001302  76.7800 283.3346 15.29367176233641"}, {"name": "STARLINK-3784", "line1": "1 52275U 22041Q   26196.19462558 -.00000711  00000+0 -26601-4 0  9993", "line2": "2 52275  53.1584 256.4635 0000864  81.4554 278.6535 15.08829295233615"}, {"name": "STARLINK-3778", "line1": "1 52276U 22041R   26196.18358218 -.00000553  00000+0 -16691-4 0  9992", "line2": "2 52276  53.1589 256.5136 0000945  92.7563 267.3536 15.08832537233612"}, {"name": "STARLINK-3780", "line1": "1 52278U 22041T   26195.45126211 -.00000256  00000+0  19917-5 0  9993", "line2": "2 52278  53.1589 259.8072 0000930  83.8596 276.2501 15.08835658233506"}, {"name": "STARLINK-3764", "line1": "1 52280U 22041V   26196.17324295  .00000639  00000+0  32341-4 0  9997", "line2": "2 52280  53.1608 254.5080 0001335  80.0410 280.0742 15.31707355233649"}, {"name": "STARLINK-3779", "line1": "1 52281U 22041W   26195.45589975 -.00000602  00000+0 -19748-4 0  9994", "line2": "2 52281  53.1591 259.7853 0001073  91.9175 268.1939 15.08833273233507"}, {"name": "STARLINK-3783", "line1": "1 52282U 22041X   26196.16670139  .00046601  00000+0  18957-2 0  9993", "line2": "2 52282  53.1595 245.9342 0000198 113.1214 249.8105 15.24094303  5835"}, {"name": "STARLINK-3789", "line1": "1 52283U 22041Y   26195.44759438  .00000745  00000+0  64947-4 0  9995", "line2": "2 52283  53.1592 259.8224 0001175  85.3821 274.7304 15.08819199233501"}, {"name": "STARLINK-3561", "line1": "1 52284U 22041Z   26196.16670139  .00042418  00000+0  20591-2 0  9994", "line2": "2 52284  53.1590 246.1364 0002156 105.9915 193.4488 15.18086389  5838"}, {"name": "STARLINK-3802", "line1": "1 52286U 22041AB  26196.16670139  .00048700  00000+0  19289-2 0  9998", "line2": "2 52286  53.1608 245.9387 0001745  50.4110  29.7511 15.24968503  5737"}, {"name": "STARLINK-3822", "line1": "1 52287U 22041AC  26195.48699274  .00008124  00000+0  29305-3 0  9991", "line2": "2 52287  53.1607 258.0826 0001094  74.7470 285.3652 15.29411639233530"}, {"name": "STARLINK-3776", "line1": "1 52288U 22041AD  26196.16670139  .00048057  00000+0  18795-2 0  9996", "line2": "2 52288  53.1609 245.9351 0002034  61.8219  40.2707 15.25397521  5731"}, {"name": "STARLINK-3751", "line1": "1 52289U 22041AE  26196.15968148  .00001880  00000+0  77449-4 0  9992", "line2": "2 52289  53.1603 245.2334 0000850  54.8130 305.2950 15.29353942233761"}, {"name": "STARLINK-3772", "line1": "1 52290U 22041AF  26196.16670139  .00043135  00000+0  18404-2 0  9998", "line2": "2 52290  53.1608 246.0710 0001894  50.2197  35.8749 15.22517595  5732"}, {"name": "STARLINK-3753", "line1": "1 52292U 22041AH  26196.16670139  .00043953  00000+0  17324-2 0  9998", "line2": "2 52292  53.1590 245.9227 0002141  87.7336  98.7860 15.25179634  5835"}, {"name": "STARLINK-3771", "line1": "1 52293U 22041AJ  26196.16670139  .00046427  00000+0  18284-2 0  9994", "line2": "2 52293  53.1617 245.9408 0002198  68.5939  49.6039 15.25181484  5632"}, {"name": "STARLINK-3777", "line1": "1 52294U 22041AK  26196.16670139  .00044200  00000+0  17610-2 0  9994", "line2": "2 52294  53.1584 245.9784 0002294  84.3047  93.6091 15.24815513  5831"}, {"name": "STARLINK-3765", "line1": "1 52295U 22041AL  26196.16670139  .00043908  00000+0  17315-2 0  9991", "line2": "2 52295  53.1588 245.8767 0002218  81.0985  90.5444 15.25161464  5633"}, {"name": "STARLINK-3766", "line1": "1 52296U 22041AM  26196.16670139  .00044270  00000+0  17174-2 0  9998", "line2": "2 52296  53.1579 245.9293 0001283 105.1248 160.8249 15.25706893  5837"}, {"name": "STARLINK-3758", "line1": "1 52297U 22041AN  26196.16670139  .00044330  00000+0  18248-2 0  9999", "line2": "2 52297  53.1603 245.9876 0001980  59.9190  73.6536 15.23717275  5833"}, {"name": "STARLINK-3760", "line1": "1 52298U 22041AP  26196.16670139  .00044678  00000+0  18957-2 0  9992", "line2": "2 52298  53.1593 245.7764 0000045  71.6007 293.2245 15.22690192  5682"}, {"name": "STARLINK-3769", "line1": "1 52300U 22041AR  26196.16670139  .00046038  00000+0  18805-2 0  9990", "line2": "2 52300  53.1590 245.9503 0000624 166.3728 148.3027 15.23961226  5689"}, {"name": "STARLINK-3768", "line1": "1 52301U 22041AS  26196.16670139  .00041187  00000+0  17502-2 0  9994", "line2": "2 52301  53.1590 246.0364 0002487  83.6253  85.4754 15.22674124  5786"}, {"name": "STARLINK-3564", "line1": "1 52302U 22041AT  26195.39436294  .00000084  00000+0  14477-4 0  9992", "line2": "2 52302  53.1602 236.8781 0001176  74.6822 285.4309 15.31703932233812"}, {"name": "STARLINK-3742", "line1": "1 52303U 22041AU  26196.16670139  .00043684  00000+0  17822-2 0  9995", "line2": "2 52303  53.1589 245.9789 0001325 156.1928 123.8573 15.24025165  5536"}, {"name": "STARLINK-3744", "line1": "1 52304U 22041AV  26196.16670139  .00037371  00000+0  17418-2 0  9993", "line2": "2 52304  53.1592 236.2303 0001938  79.2213 166.6348 15.19556577  5780"}, {"name": "STARLINK-3724", "line1": "1 52305U 22041AW  26196.16670139  .00045623  00000+0  18113-2 0  9996", "line2": "2 52305  53.1595 245.9971 0000639 154.2332 149.4432 15.24919087  5682"}, {"name": "STARLINK-3747", "line1": "1 52306U 22041AX  26196.16670139  .00029921  00000+0  12484-2 0  9995", "line2": "2 52306  53.1594 236.0532 0000067  54.3758 300.8539 15.23448637  5838"}, {"name": "STARLINK-3755", "line1": "1 52307U 22041AY  26196.16670139  .00045602  00000+0  18609-2 0  9995", "line2": "2 52307  53.1596 245.9645 0000751 169.2337 157.9524 15.23998576  5831"}, {"name": "STARLINK-3756", "line1": "1 52309U 22041BA  26195.57612984  .00000675  00000+0  33521-4 0  9998", "line2": "2 52309  53.1595 235.9972 0001008  62.3058 297.8046 15.31698389235064"}, {"name": "STARLINK-3688", "line1": "1 52310U 22041BB  26196.15406352  .00000256  00000+0  20032-4 0  9993", "line2": "2 52310  53.1592 233.3111 0001354  70.0067 290.1080 15.31696844235158"}, {"name": "STARLINK-3750", "line1": "1 52311U 22041BC  26196.16670139  .00030904  00000+0  12685-2 0  9997", "line2": "2 52311  53.1590 236.0708 0001240  32.7354  14.6245 15.23984003  5781"}, {"name": "STARLINK-3752", "line1": "1 52312U 22041BD  26196.16670139  .00033213  00000+0  13000-2 0  9996", "line2": "2 52312  53.1604 235.9082 0000323 115.4784 208.4205 15.25542880  5838"}, {"name": "STARLINK-3749", "line1": "1 52313U 22041BE  26196.16670139  .00036720  00000+0  14587-2 0  9994", "line2": "2 52313  53.1605 236.0015 0001093 140.1615 141.5190 15.25000392  5681"}, {"name": "STARLINK-3889", "line1": "1 52331U 22045A   26195.76222644 -.00000358  00000+0 -44158-5 0  9997", "line2": "2 52331  53.1622 358.4119 0001192  91.6703 268.4425 15.08832644234826"}, {"name": "STARLINK-3831", "line1": "1 52332U 22045B   26195.77422485  .00000260  00000+0  34458-4 0  9995", "line2": "2 52332  53.1614 358.3690 0001357  92.2093 267.9054 15.08833195234827"}, {"name": "STARLINK-3847", "line1": "1 52333U 22045C   26195.67558316 -.00000155  00000+0  67756-5 0  9990", "line2": "2 52333  53.1612 355.7046 0000975  80.9355 279.1756 15.31704096234841"}, {"name": "STARLINK-3880", "line1": "1 52334U 22045D   26195.89102470  .00000067  00000+0  22297-4 0  9992", "line2": "2 52334  53.1619 357.8331 0001278 102.2803 257.8332 15.08833399234837"}, {"name": "STARLINK-3814", "line1": "1 52335U 22045E   26195.68862652 -.00001163  00000+0 -55011-4 0  9995", "line2": "2 52335  53.1618 358.7432 0001300  94.3651 265.7489 15.08839336234813"}, {"name": "STARLINK-3823", "line1": "1 52336U 22045F   26195.75607243 -.00001302  00000+0 -28247-4 0  9993", "line2": "2 52336  53.1632 354.3187 0001011  80.9479 279.1638 15.33562237234880"}, {"name": "STARLINK-3797", "line1": "1 52337U 22045G   26195.76590044 -.00000141  00000+0  92255-5 0  9995", "line2": "2 52337  53.1616 358.3960 0001308  97.5911 262.5229 15.08841042234822"}, {"name": "STARLINK-3792", "line1": "1 52339U 22045J   26195.77322338  .00000427  00000+0  44933-4 0  9992", "line2": "2 52339  53.1625 358.0072 0001414  74.9285 285.1863 15.08834528234833"}, {"name": "STARLINK-3818", "line1": "1 52340U 22045K   26196.00002315 -.00015723  00000+0 -44061-3 0  9999", "line2": "2 52340  53.1605 345.0675 0000959  70.8492 186.8280 15.35410802  5714"}, {"name": "STARLINK-3843", "line1": "1 52341U 22045L   26195.67388995  .00000329  00000+0  38787-4 0  9996", "line2": "2 52341  53.1614 358.7613 0001206  92.8593 267.2537 15.08839830234810"}]